TEVEL2-5                
1 63214U 25052E   26068.96660006  .00021339  00000+0  71765-3 0  9991
2 63214  97.4013 325.3677 0004700  95.3936 264.7842 15.30817434 54919
STARLINK-34185          
1 64744U 25144W   26068.54830600  .00041860  00000+0  14185-2 0  9998
2 64744  53.1590 181.4499 0001168  63.7059 296.4061 15.30178478 39691
